IRIDIUM 33 DEB          
1 38024U 97051YL  17337.16488876  .00003043  00000-0  10695-2 0  9991
2 38024  86.4748 290.7286 0139360  12.1575 348.2923 14.29352031429627
